COMMENT,ORIGINATOR,NORAD_CAT_ID,OBJECT_NAME,OBJECT_TYPE,CLASSIFICATION_TYPE,INTLDES,EPOCH,EPOCH_MICROSECONDS,MEAN_MOTION,ECCENTRICITY,INCLINATION,RA_OF_ASC_NODE,ARG_OF_PERICENTER,MEAN_ANOMALY,EPHEMERIS_TYPE,ELEMENT_SET_NO,REV_AT_EPOCH,BSTAR,MEAN_MOTION_DOT,MEAN_MOTION_DDOT,FILE,TLE_LINE0,TLE_LINE1,TLE_LINE2,OBJECT_ID,OBJECT_NUMBER,SEMIMAJOR_AXIS,PERIOD,APOGEE,PERIGEE,DECAYED
GENERATED VIA SPACETRACK.ORG API,18 SPCS,29055,ASTRA 1KR,PAYLOAD,U,06012A,2024-02-20 21:39:29,107872,1.00272348,0.0003641,0.1064,277.4519,7.9237,208.9687,0,999,3722,0,0.0000011,0,4194241,0 ASTRA 1KR,1 29055U 06012A   24051.90242023  .00000110  00000-0  00000-0 0  9996,2 29055   0.1064 277.4519 0003641   7.9237 208.9687  1.00272348 37222,2006-012A,29055,42164.574,1436.089,35801.791,35771.087,0
GENERATED VIA SPACETRACK.ORG API,18 SPCS,33436,ASTRA 1M,PAYLOAD,U,08057A,2024-02-20 21:39:29,107872,1.00271251,0.0000427,0.019,90.9024,278.347,125.0883,0,999,3724,0,0.0000011,0,4194241,0 ASTRA 1M,1 33436U 08057A   24051.90242023  .00000110  00000-0  00000-0 0  9995,2 33436   0.0190  90.9024 0000427 278.3470 125.0883  1.00271251 37241,2008-057A,33436,42164.882,1436.105,35788.547,35784.946,0
GENERATED VIA SPACETRACK.ORG API,18 SPCS,44457,COSMOS 2539,PAYLOAD,U,19048A,2024-02-20 21:37:21,290304,1.00270125,0.0000673,0.017,120.4216,210.4313,155.7754,0,999,1673,0,0.00000071,0,4194241,0 COSMOS 2539,1 44457U 19048A   24051.90094086  .00000071  00000-0  00000-0 0  9992,2 44457   0.0170 120.4216 0000673 210.4313 155.7754  1.00270125 16739,2019-048A,44457,42165.197,1436.121,35789.900,35784.225,0
GENERATED VIA SPACETRACK.ORG API,18 SPCS,42749,ECHOSTAR 21,PAYLOAD,U,17032A,2024-02-20 21:36:58,732992,1.00272378,0.000266,2.7443,317.3741,358.8808,168.5222,0,999,2461,0,0.00000059,0,4194241,0 ECHOSTAR 21,1 42749U 17032A   24051.90067978  .00000059  00000-0  00000-0 0  9991,2 42749   2.7443 317.3741 0002660 358.8808 168.5222  1.00272378 24617,2017-032A,42749,42164.566,1436.088,35797.646,35775.215,0
GENERATED VIA SPACETRACK.ORG API,18 SPCS,42915,TDRS 13,PAYLOAD,U,17047A,2024-02-20 21:30:42,796224,1.00272285,0.0012903,3.739,342.2474,107.0074,12.1968,0,999,2385,0,-0.00000104,0,4194241,0 TDRS 13,1 42915U 17047A   24051.89632866 -.00000104  00000-0  00000-0 0  9996,2 42915   3.7390 342.2474 0012903 107.0074  12.1968  1.00272285 23857,2017-047A,42915,42164.592,1436.090,35840.862,35732.052,0
GENERATED VIA SPACETRACK.ORG API,18 SPCS,33373,NIMIQ 4,PAYLOAD,U,08044A,2024-02-20 21:10:32,276064,1.00272273,0.0002046,0.0228,100.1253,225.7989,59.9998,0,999,5648,0,-0.00000229,0,4194241,0 NIMIQ 4,1 33373U 08044A   24051.88231801 -.00000229  00000-0  00000-0 0  9992,2 33373   0.0228 100.1253 0002046 225.7989  59.9998  1.00272273 56485,2008-044A,33373,42164.595,1436.090,35795.087,35777.833,0
GENERATED VIA SPACETRACK.ORG API,18 SPCS,41937,SBIRS GEO 4 (USA 273),PAYLOAD,U,17004A,2024-02-20 21:06:01,601280,1.00271844,0.0002625,1.462,348.827,334.2508,46.8933,0,999,2611,0,-0.0000015,0,4194241,0 SBIRS GEO 4 (USA 273),1 41937U 17004A   24051.87918520 -.00000150  00000-0  00000-0 0  9995,2 41937   1.4620 348.8270 0002625 334.2508  46.8933  1.00271844 26111,2017-004A,41937,42164.715,1436.096,35797.649,35775.512,0
GENERATED VIA SPACETRACK.ORG API,18 SPCS,43162,SBIRS GEO 3 (USA 282),PAYLOAD,U,18009A,2024-02-20 19:05:10,808736,1.00272495,0.0002059,2.5055,331.4494,353.8424,311.7848,0,999,2234,0,0.00000122,0,4194011,0 SBIRS GEO 3 (USA 282),1 43162U 18009A   24051.79526399  .00000122  00000-0  00000+0 0  9990,2 43162   2.5055 331.4494 0002059 353.8424 311.7848  1.00272495 22341,2018-009A,43162,42164.533,1436.087,35795.080,35777.716,0
GENERATED VIA SPACETRACK.ORG API,18 SPCS,41469,IRNSS 1G,PAYLOAD,U,16027A,2024-02-20 18:44:52,769184,1.0027628,0.0004691,3.1803,123.6935,288.7238,148.4459,0,999,2867,0,-0.00000346,0,4194191,0 IRNSS 1G,1 41469U 16027A   24051.78116631 -.00000346  00000-0  00000+0 0  9998,2 41469   3.1803 123.6935 0004691 288.7238 148.4459  1.00276280 28672,2016-027A,41469,42163.472,1436.033,35805.116,35765.558,0
GENERATED VIA SPACETRACK.ORG API,18 SPCS,44307,YAMAL 601,PAYLOAD,U,19031A,2024-02-20 18:21:49,317696,1.00271635,0.0002568,0.0154,133.9105,195.2121,145.4852,0,999,1741,0,0.00000111,0,4194132,0 YAMAL 601,1 44307U 19031A   24051.76515414  .00000111  00000-0  00000+0 0  9999,2 44307   0.0154 133.9105 0002568 195.2121 145.4852  1.00271635 17411,2019-031A,44307,42164.774,1436.099,35797.467,35775.811,0
GENERATED VIA SPACETRACK.ORG API,18 SPCS,42915,TDRS 13,PAYLOAD,U,17047A,2024-02-20 18:04:24,211200,1.00272271,0.0012896,3.7391,342.2447,107.0348,320.4532,0,999,2388,0,-0.00000104,0,4194196,0 TDRS 13,1 42915U 17047A   24051.75305800 -.00000104  00000-0  00000+0 0  9995,2 42915   3.7391 342.2447 0012896 107.0348 320.4532  1.00272271 23883,2017-047A,42915,42164.596,1436.090,35840.836,35732.085,0
GENERATED VIA SPACETRACK.ORG API,18 SPCS,25967,UFO 10 (USA 146),PAYLOAD,U,99063A,2024-02-20 18:01:16,241952,1.00270466,0.0004081,9.3804,31.1367,270.1751,96.3701,0,999,8885,0,-0.00000195,0,4194241,0 UFO 10 (USA 146),1 25967U 99063A   24051.75088243 -.00000195  00000-0  00000-0 0  9991,2 25967   9.3804  31.1367 0004081 270.1751  96.3701  1.00270466 88853,1999-063A,25967,42165.102,1436.116,35804.174,35769.759,0
GENERATED VIA SPACETRACK.ORG API,18 SPCS,43454,TITAN 3C TRANSTAGE DEB,DEBRIS,U,69013M,2024-02-20 17:41:08,746656,1.02843778,0.0561346,1.5009,247.6133,211.4309,144.4284,0,999,2191,0,-0.0000003,0,4194664,0 TITAN 3C TRANSTAGE DEB,1 43454U 69013M   24051.73690679 -.00000030  00000-0  00000+0 0  9991,2 43454   1.5009 247.6133 0561346 211.4309 144.4284  1.02843778 21918,1969-013M,43454,41458.778,1400.182,37407.915,32753.371,0
GENERATED VIA SPACETRACK.ORG API,18 SPCS,43454,TITAN 3C TRANSTAGE DEB,DEBRIS,U,69013M,2024-02-20 17:41:08,746656,1.02843778,0.0561346,1.5009,247.6133,211.4309,144.4284,0,999,2191,0,-0.0000003,0,4194887,0 TITAN 3C TRANSTAGE DEB,1 43454U 69013M   24051.73690679 -.00000030  00000-0  00000-0 0  9992,2 43454   1.5009 247.6133 0561346 211.4309 144.4284  1.02843778 21918,1969-013M,43454,41458.778,1400.182,37407.915,32753.371,0
GENERATED VIA SPACETRACK.ORG API,18 SPCS,44066,S5 DEB,DEBRIS,U,19009E,2024-02-20 17:20:40,999200,0.9898552,0.000663,4.4038,80.9132,191.8191,168.3339,0,999,1797,0,-0.00000021,0,4194241,0 S5 DEB,1 44066U 19009E   24051.72269675 -.00000021  00000-0  00000-0 0  9999,2 44066   4.4038  80.9132 0006630 191.8191 168.3339  0.98985520 17972,2019-009E,44066,42529.218,1454.758,36179.280,36122.886,0
GENERATED VIA SPACETRACK.ORG API,18 SPCS,8832,TITAN 3C TRANSTAGE DEB,DEBRIS,U,76023J,2024-02-20 17:16:32,46240,0.98261553,0.0137351,20.0746,53.4297,73.2525,101.98,0,999,10926,0,-0.00000258,0,4194051,0 TITAN 3C TRANSTAGE DEB,1  8832U 76023J   24051.71981535 -.00000258  00000-0  00000+0 0  9995,2  8832  20.0746  53.4297 0137351  73.2525 101.9800  0.98261553109262,1976-023J,8832,42737.859,1465.477,36946.732,35772.715,0
GENERATED VIA SPACETRACK.ORG API,18 SPCS,8832,TITAN 3C TRANSTAGE DEB,DEBRIS,U,76023J,2024-02-20 17:16:32,46240,0.98261553,0.0137351,20.0746,53.4297,73.2525,101.98,0,999,10927,0,-0.00000259,0,4194241,0 TITAN 3C TRANSTAGE DEB,1 08832U 76023J   24051.71981535 -.00000259  00000-0  00000-0 0  9997,2 08832  20.0746  53.4297 0137351  73.2525 101.9800  0.98261553109273,1976-023J,8832,42737.859,1465.477,36946.732,35772.715,0
GENERATED VIA SPACETRACK.ORG API,18 SPCS,20253,FLTSATCOM 8 (USA 46),PAYLOAD,U,89077A,2024-02-20 17:00:37,163808,1.00280996,0.0006633,12.6703,356.2761,345.5286,189.1157,0,999,25210,0,-0.0000037,0,4194114,0 FLTSATCOM 8 (USA 46),1 20253U 89077A   24051.70876347 -.00000370  00000-0  00000+0 0  9997,2 20253  12.6703 356.2761 0006633 345.5286 189.1157  1.00280996252101,1989-077A,20253,42162.150,1435.965,35811.981,35756.049,0
GENERATED VIA SPACETRACK.ORG API,18 SPCS,20253,FLTSATCOM 8 (USA 46),PAYLOAD,U,89077A,2024-02-20 17:00:37,163808,1.00280996,0.0006633,12.6703,356.2761,345.5286,189.1157,0,999,25212,0,-0.00000371,0,4194241,0 FLTSATCOM 8 (USA 46),1 20253U 89077A   24051.70876347 -.00000371  00000-0  00000-0 0  9999,2 20253  12.6703 356.2761 0006633 345.5286 189.1157  1.00280996252123,1989-077A,20253,42162.150,1435.965,35811.981,35756.049,0
GENERATED VIA SPACETRACK.ORG API,18 SPCS,44479,AMOS 17,PAYLOAD,U,19050A,2024-02-20 16:29:32,511840,1.00270672,0.0002165,0.0225,99.084,236.6295,78.7387,0,999,1668,0,0.00000099,0,4194241,0 AMOS 17,1 44479U 19050A   24051.68718185  .00000099  00000-0  00000-0 0  9997,2 44479   0.0225  99.0840 0002165 236.6295  78.7387  1.00270672 16682,2019-050A,44479,42165.044,1436.113,35796.038,35777.780,0
GENERATED VIA SPACETRACK.ORG API,18 SPCS,28945,SPAINSAT,PAYLOAD,U,06007A,2024-02-20 15:59:25,209600,1.00272971,0.000393,0.0532,259.9209,42.5106,57.4932,0,999,6571,0,-0.00000225,0,4194241,0 SPAINSAT,1 28945U 06007A   24051.66626400 -.00000225  00000-0  00000-0 0  9993,2 28945   0.0532 259.9209 0003930  42.5106  57.4932  1.00272971 65717,2006-007A,28945,42164.399,1436.080,35802.835,35769.694,0
GENERATED VIA SPACETRACK.ORG API,18 SPCS,28945,SPAINSAT,PAYLOAD,U,06007A,2024-02-20 15:59:25,252800,1.00273065,0.0003892,0.0537,258.7703,44.3308,56.8242,0,999,6572,0,-0.00000225,0,4194887,0 SPAINSAT,1 28945U 06007A   24051.66626450 -.00000225  00000-0  00000-0 0  9998,2 28945   0.0537 258.7703 0003892  44.3308  56.8242  1.00273065 65722,2006-007A,28945,42164.373,1436.079,35802.649,35769.828,0
GENERATED VIA SPACETRACK.ORG API,18 SPCS,29162,EUTE 113 WEST A(SATMEX 6,PAYLOAD,U,06020A,2024-02-20 15:29:17,312064,1.00273457,0.0003067,0.1738,101.0734,234.9912,293.3482,0,999,6497,0,-0.00000047,0,4193961,0 EUTE 113 WEST A(SATMEX 6,1 29162U 06020A   24051.64533926 -.00000047  00000-0  00000-0 0  9990,2 29162   0.1738 101.0734 0003067 234.9912 293.3482  1.00273457 64979,2006-020A,29162,42164.263,1436.073,35799.060,35773.196,0
